TEVEL2-2                
1 63219U 25052K   26068.64848259  .00020339  00000+0  69428-3 0  9991
2 63219  97.3987 324.7700 0004693 105.7930 254.3828 15.30343745 54855
STARLINK-36420          
1 67347U 26003P   26068.50054338  .00027877  00000+0  10183-2 0  9993
2 67347  43.0005 228.2450 0001566 255.7732 104.2945 15.27592799  8798
